<?xml version="1.0" encoding="UTF-8"?>
<ndm xmlns:xsi="http://www.w3.org/2001/XMLSchema-instance" xsi:noNamespaceSchemaLocation="https://sanaregistry.org/r/ndmxml_unqualified/ndmxml-2.0.0-master-2.0.xsd">
<omm id="CCSDS_OMM_VERS" version="2.0">
<header><CREATION_DATE/><ORIGINATOR/></header><body><segment><metadata><OBJECT_NAME>ORBCOMM FM24</OBJECT_NAME><OBJECT_ID>1998-053D</OBJECT_ID><CENTER_NAME>EARTH</CENTER_NAME><REF_FRAME>TEME</REF_FRAME><TIME_SYSTEM>UTC</TIME_SYSTEM><MEAN_ELEMENT_THEORY>SGP4</MEAN_ELEMENT_THEORY></metadata><data><meanElements><EPOCH>2024-08-28T04:50:38.651136</EPOCH><MEAN_MOTION>14.36224576</MEAN_MOTION><ECCENTRICITY>.0001967</ECCENTRICITY><INCLINATION>45.0065</INCLINATION><RA_OF_ASC_NODE>216.5542</RA_OF_ASC_NODE><ARG_OF_PERICENTER>273.8715</ARG_OF_PERICENTER><MEAN_ANOMALY>86.1907</MEAN_ANOMALY></meanElements><tleParameters><EPHEMERIS_TYPE>0</EPHEMERIS_TYPE><CLASSIFICATION_TYPE>U</CLASSIFICATION_TYPE><NORAD_CAT_ID>25478</NORAD_CAT_ID><ELEMENT_SET_NO>999</ELEMENT_SET_NO><REV_AT_EPOCH>35557</REV_AT_EPOCH><BSTAR>.13268E-2</BSTAR><MEAN_MOTION_DOT>.3768E-4</MEAN_MOTION_DOT><MEAN_MOTION_DDOT>0</MEAN_MOTION_DDOT></tleParameters></data></segment></body></omm>
<omm id="CCSDS_OMM_VERS" version="2.0">
<header><CREATION_DATE/><ORIGINATOR/></header><body><segment><metadata><OBJECT_NAME>ORBCOMM FM25</OBJECT_NAME><OBJECT_ID>1998-053E</OBJECT_ID><CENTER_NAME>EARTH</CENTER_NAME><REF_FRAME>TEME</REF_FRAME><TIME_SYSTEM>UTC</TIME_SYSTEM><MEAN_ELEMENT_THEORY>SGP4</MEAN_ELEMENT_THEORY></metadata><data><meanElements><EPOCH>2024-08-28T05:44:10.984992</EPOCH><MEAN_MOTION>14.36211630</MEAN_MOTION><ECCENTRICITY>.0004043</ECCENTRICITY><INCLINATION>45.0056</INCLINATION><RA_OF_ASC_NODE>214.6287</RA_OF_ASC_NODE><ARG_OF_PERICENTER>247.8553</ARG_OF_PERICENTER><MEAN_ANOMALY>112.1866</MEAN_ANOMALY></meanElements><tleParameters><EPHEMERIS_TYPE>0</EPHEMERIS_TYPE><CLASSIFICATION_TYPE>U</CLASSIFICATION_TYPE><NORAD_CAT_ID>25479</NORAD_CAT_ID><ELEMENT_SET_NO>999</ELEMENT_SET_NO><REV_AT_EPOCH>35559</REV_AT_EPOCH><BSTAR>.12232E-2</BSTAR><MEAN_MOTION_DOT>.3462E-4</MEAN_MOTION_DOT><MEAN_MOTION_DDOT>0</MEAN_MOTION_DDOT></tleParameters></data></segment></body></omm>
<omm id="CCSDS_OMM_VERS" version="2.0">
<header><CREATION_DATE/><ORIGINATOR/></header><body><segment><metadata><OBJECT_NAME>ORBCOMM FM26</OBJECT_NAME><OBJECT_ID>1998-053F</OBJECT_ID><CENTER_NAME>EARTH</CENTER_NAME><REF_FRAME>TEME</REF_FRAME><TIME_SYSTEM>UTC</TIME_SYSTEM><MEAN_ELEMENT_THEORY>SGP4</MEAN_ELEMENT_THEORY></metadata><data><meanElements><EPOCH>2024-08-27T15:57:03.701088</EPOCH><MEAN_MOTION>14.35560307</MEAN_MOTION><ECCENTRICITY>.0006575</ECCENTRICITY><INCLINATION>45.0053</INCLINATION><RA_OF_ASC_NODE>211.9547</RA_OF_ASC_NODE><ARG_OF_PERICENTER>253.5027</ARG_OF_PERICENTER><MEAN_ANOMALY>106.5098</MEAN_ANOMALY></meanElements><tleParameters><EPHEMERIS_TYPE>0</EPHEMERIS_TYPE><CLASSIFICATION_TYPE>U</CLASSIFICATION_TYPE><NORAD_CAT_ID>25480</NORAD_CAT_ID><ELEMENT_SET_NO>999</ELEMENT_SET_NO><REV_AT_EPOCH>35544</REV_AT_EPOCH><BSTAR>.10355E-2</BSTAR><MEAN_MOTION_DOT>.287E-4</MEAN_MOTION_DOT><MEAN_MOTION_DDOT>0</MEAN_MOTION_DDOT></tleParameters></data></segment></body></omm>
<omm id="CCSDS_OMM_VERS" version="2.0">
<header><CREATION_DATE/><ORIGINATOR/></header><body><segment><metadata><OBJECT_NAME>ORBCOMM FM27</OBJECT_NAME><OBJECT_ID>1998-053G</OBJECT_ID><CENTER_NAME>EARTH</CENTER_NAME><REF_FRAME>TEME</REF_FRAME><TIME_SYSTEM>UTC</TIME_SYSTEM><MEAN_ELEMENT_THEORY>SGP4</MEAN_ELEMENT_THEORY></metadata><data><meanElements><EPOCH>2024-08-27T16:07:08.067360</EPOCH><MEAN_MOTION>14.36192199</MEAN_MOTION><ECCENTRICITY>.0002266</ECCENTRICITY><INCLINATION>45.0040</INCLINATION><RA_OF_ASC_NODE>217.5708</RA_OF_ASC_NODE><ARG_OF_PERICENTER>315.8798</ARG_OF_PERICENTER><MEAN_ANOMALY>44.1869</MEAN_ANOMALY></meanElements><tleParameters><EPHEMERIS_TYPE>0</EPHEMERIS_TYPE><CLASSIFICATION_TYPE>U</CLASSIFICATION_TYPE><NORAD_CAT_ID>25481</NORAD_CAT_ID><ELEMENT_SET_NO>999</ELEMENT_SET_NO><REV_AT_EPOCH>35544</REV_AT_EPOCH><BSTAR>.11615E-2</BSTAR><MEAN_MOTION_DOT>.3279E-4</MEAN_MOTION_DOT><MEAN_MOTION_DDOT>0</MEAN_MOTION_DDOT></tleParameters></data></segment></body></omm>
<omm id="CCSDS_OMM_VERS" version="2.0">
<header><CREATION_DATE/><ORIGINATOR/></header><body><segment><metadata><OBJECT_NAME>ORBCOMM FM28</OBJECT_NAME><OBJECT_ID>1998-053H</OBJECT_ID><CENTER_NAME>EARTH</CENTER_NAME><REF_FRAME>TEME</REF_FRAME><TIME_SYSTEM>UTC</TIME_SYSTEM><MEAN_ELEMENT_THEORY>SGP4</MEAN_ELEMENT_THEORY></metadata><data><meanElements><EPOCH>2024-08-28T01:02:52.938528</EPOCH><MEAN_MOTION>14.36592252</MEAN_MOTION><ECCENTRICITY>.000418</ECCENTRICITY><INCLINATION>45.0049</INCLINATION><RA_OF_ASC_NODE>153.9285</RA_OF_ASC_NODE><ARG_OF_PERICENTER>285.7833</ARG_OF_PERICENTER><MEAN_ANOMALY>74.2553</MEAN_ANOMALY></meanElements><tleParameters><EPHEMERIS_TYPE>0</EPHEMERIS_TYPE><CLASSIFICATION_TYPE>U</CLASSIFICATION_TYPE><NORAD_CAT_ID>25482</NORAD_CAT_ID><ELEMENT_SET_NO>999</ELEMENT_SET_NO><REV_AT_EPOCH>35634</REV_AT_EPOCH><BSTAR>.11082E-2</BSTAR><MEAN_MOTION_DOT>.3148E-4</MEAN_MOTION_DOT><MEAN_MOTION_DDOT>0</MEAN_MOTION_DDOT></tleParameters></data></segment></body></omm>
<omm id="CCSDS_OMM_VERS" version="2.0">
<header><CREATION_DATE/><ORIGINATOR/></header><body><segment><metadata><OBJECT_NAME>ORBCOMM FM30</OBJECT_NAME><OBJECT_ID>1999-065A</OBJECT_ID><CENTER_NAME>EARTH</CENTER_NAME><REF_FRAME>TEME</REF_FRAME><TIME_SYSTEM>UTC</TIME_SYSTEM><MEAN_ELEMENT_THEORY>SGP4</MEAN_ELEMENT_THEORY></metadata><data><meanElements><EPOCH>2024-08-28T04:09:09.317664</EPOCH><MEAN_MOTION>14.35706219</MEAN_MOTION><ECCENTRICITY>.0005112</ECCENTRICITY><INCLINATION>45.0327</INCLINATION><RA_OF_ASC_NODE>35.1911</RA_OF_ASC_NODE><ARG_OF_PERICENTER>331.1701</ARG_OF_PERICENTER><MEAN_ANOMALY>28.8864</MEAN_ANOMALY></meanElements><tleParameters><EPHEMERIS_TYPE>0</EPHEMERIS_TYPE><CLASSIFICATION_TYPE>U</CLASSIFICATION_TYPE><NORAD_CAT_ID>25980</NORAD_CAT_ID><ELEMENT_SET_NO>999</ELEMENT_SET_NO><REV_AT_EPOCH>29284</REV_AT_EPOCH><BSTAR>.11359E-2</BSTAR><MEAN_MOTION_DOT>.3171E-4</MEAN_MOTION_DOT><MEAN_MOTION_DDOT>0</MEAN_MOTION_DDOT></tleParameters></data></segment></body></omm>
<omm id="CCSDS_OMM_VERS" version="2.0">
<header><CREATION_DATE/><ORIGINATOR/></header><body><segment><metadata><OBJECT_NAME>ORBCOMM FM31</OBJECT_NAME><OBJECT_ID>1999-065B</OBJECT_ID><CENTER_NAME>EARTH</CENTER_NAME><REF_FRAME>TEME</REF_FRAME><TIME_SYSTEM>UTC</TIME_SYSTEM><MEAN_ELEMENT_THEORY>SGP4</MEAN_ELEMENT_THEORY></metadata><data><meanElements><EPOCH>2024-08-28T03:20:18.121632</EPOCH><MEAN_MOTION>14.35688351</MEAN_MOTION><ECCENTRICITY>.0002127</ECCENTRICITY><INCLINATION>45.0241</INCLINATION><RA_OF_ASC_NODE>28.9702</RA_OF_ASC_NODE><ARG_OF_PERICENTER>354.8655</ARG_OF_PERICENTER><MEAN_ANOMALY>5.2171</MEAN_ANOMALY></meanElements><tleParameters><EPHEMERIS_TYPE>0</EPHEMERIS_TYPE><CLASSIFICATION_TYPE>U</CLASSIFICATION_TYPE><NORAD_CAT_ID>25981</NORAD_CAT_ID><ELEMENT_SET_NO>999</ELEMENT_SET_NO><REV_AT_EPOCH>29283</REV_AT_EPOCH><BSTAR>.93424E-3</BSTAR><MEAN_MOTION_DOT>.2581E-4</MEAN_MOTION_DOT><MEAN_MOTION_DDOT>0</MEAN_MOTION_DDOT></tleParameters></data></segment></body></omm>
<omm id="CCSDS_OMM_VERS" version="2.0">
<header><CREATION_DATE/><ORIGINATOR/></header><body><segment><metadata><OBJECT_NAME>ORBCOMM FM32</OBJECT_NAME><OBJECT_ID>1999-065C</OBJECT_ID><CENTER_NAME>EARTH</CENTER_NAME><REF_FRAME>TEME</REF_FRAME><TIME_SYSTEM>UTC</TIME_SYSTEM><MEAN_ELEMENT_THEORY>SGP4</MEAN_ELEMENT_THEORY></metadata><data><meanElements><EPOCH>2024-08-27T18:41:40.957728</EPOCH><MEAN_MOTION>14.34697635</MEAN_MOTION><ECCENTRICITY>.0004365</ECCENTRICITY><INCLINATION>45.0167</INCLINATION><RA_OF_ASC_NODE>45.2468</RA_OF_ASC_NODE><ARG_OF_PERICENTER>3.3430</ARG_OF_PERICENTER><MEAN_ANOMALY>356.7446</MEAN_ANOMALY></meanElements><tleParameters><EPHEMERIS_TYPE>0</EPHEMERIS_TYPE><CLASSIFICATION_TYPE>U</CLASSIFICATION_TYPE><NORAD_CAT_ID>25982</NORAD_CAT_ID><ELEMENT_SET_NO>999</ELEMENT_SET_NO><REV_AT_EPOCH>29243</REV_AT_EPOCH><BSTAR>.10078E-2</BSTAR><MEAN_MOTION_DOT>.2739E-4</MEAN_MOTION_DOT><MEAN_MOTION_DDOT>0</MEAN_MOTION_DDOT></tleParameters></data></segment></body></omm>

</ndm>
