ORBCOMM FM24            
1 25478U 98053D   24241.20183624  .00003768  00000+0  13268-2 0  9995
2 25478  45.0065 216.5542 0001967 273.8715  86.1907 14.36224576355575
ORBCOMM FM25            
1 25479U 98053E   24241.23901603  .00003462  00000+0  12232-2 0  9995
2 25479  45.0056 214.6287 0004043 247.8553 112.1866 14.36211630355593
ORBCOMM FM26            
1 25480U 98053F   24240.66462617  .00002870  00000+0  10355-2 0  9996
2 25480  45.0053 211.9547 0006575 253.5027 106.5098 14.35560307355448
ORBCOMM FM27            
1 25481U 98053G   24240.67162115  .00003279  00000+0  11615-2 0  9992
2 25481  45.0040 217.5708 0002266 315.8798  44.1869 14.36192199355440
ORBCOMM FM28            
1 25482U 98053H   24241.04366827  .00003148  00000+0  11082-2 0  9994
2 25482  45.0049 153.9285 0004180 285.7833  74.2553 14.36592252356343
ORBCOMM FM30            
1 25980U 99065A   24241.17302451  .00003171  00000+0  11359-2 0  9991
2 25980  45.0327  35.1911 0005112 331.1701  28.8864 14.35706219292841
ORBCOMM FM31            
1 25981U 99065B   24241.13909863  .00002581  00000+0  93424-3 0  9996
2 25981  45.0241  28.9702 0002127 354.8655   5.2171 14.35688351292833
ORBCOMM FM32            
1 25982U 99065C   24240.77894627  .00002739  00000+0  10078-2 0  9995
2 25982  45.0167  45.2468 0004365   3.3430 356.7446 14.34697635292434
